start=new Date('2023-03-19T00:00:00.000Z').valueOf();
sats=[{"ECCENTRICITY":"0.00010620","OBJECT_TYPE":"PAYLOAD","SITE":"AFETR","OBJECT_ID":"2021-044BK","MEAN_ELEMENT_THEORY":"SGP4","SEMIMAJOR_AXIS":"6925.326","COUNTRY_CODE":"US","GP_ID":"228402120","CENTER_NAME":"EARTH","MEAN_ANOMALY":"251.6418","TLE_LINE1":"1 48695U 21044BK  23077.89287391  .00011765  00000-0  80723-3 0  9992","ARG_OF_PERICENTER":"108.4686","RA_OF_ASC_NODE":"285.4921","EPOCH":"2023-03-18T21:25:44.305824","FILE":"3864479","CLASSIFICATION_TYPE":"U","INCLINATION":"53.0521","DECAY_DATE":null,"MEAN_MOTION_DDOT":"0.0000000000000","MEAN_MOTION":"15.06407228","APOAPSIS":"547.927","OBJECT_NAME":"STARLINK-2616","MEAN_MOTION_DOT":"0.00011765","PERIAPSIS":"546.456","TIME_SYSTEM":"UTC","REV_AT_EPOCH":"10039","NORAD_CAT_ID":"48695","TLE_LINE2":"2 48695  53.0521 285.4921 0001062 108.4686 251.6418 15.06407228100398","RCS_SIZE":"LARGE","LAUNCH_DATE":"2021-05-26","BSTAR":"0.00080723000000","EPHEMERIS_TYPE":"0","ELEMENT_SET_NO":"999","REF_FRAME":"TEME","PERIOD":"95.592"},{"EPOCH":"2023-03-18T21:11:48.921504","FILE":"3864479","CLASSIFICATION_TYPE":"U","ARG_OF_PERICENTER":"57.1351","RA_OF_ASC_NODE":"290.5360","MEAN_MOTION":"15.06404190","INCLINATION":"53.0512","DECAY_DATE":null,"MEAN_MOTION_DDOT":"0.0000000000000","OBJECT_TYPE":"PAYLOAD","SITE":"AFETR","OBJECT_ID":"2021-044BL","ECCENTRICITY":"0.00008910","SEMIMAJOR_AXIS":"6925.336","COUNTRY_CODE":"US","GP_ID":"228401868","CENTER_NAME":"EARTH","TLE_LINE1":"1 48696U 21044BL  23077.88320511  .00012065  00000-0  82734-3 0  9992","MEAN_ANOMALY":"302.9723","MEAN_ELEMENT_THEORY":"SGP4","LAUNCH_DATE":"2021-05-26","RCS_SIZE":"LARGE","EPHEMERIS_TYPE":"0","BSTAR":"0.00082734000000","ELEMENT_SET_NO":"999","REF_FRAME":"TEME","PERIOD":"95.592","PERIAPSIS":"546.584","TIME_SYSTEM":"UTC","APOAPSIS":"547.818","OBJECT_NAME":"STARLINK-2753","MEAN_MOTION_DOT":"0.00012065","NORAD_CAT_ID":"48696","REV_AT_EPOCH":"10032","TLE_LINE2":"2 48696  53.0512 290.5360 0000891  57.1351 302.9723 15.06404190100328"},{"RCS_SIZE":"LARGE","LAUNCH_DATE":"2021-05-26","ELEMENT_SET_NO":"999","EPHEMERIS_TYPE":"0","BSTAR":"0.00128760000000","PERIOD":"95.591","REF_FRAME":"TEME","MEAN_MOTION_DOT":"0.00018957","OBJECT_NAME":"STARLINK-2715","APOAPSIS":"547.763","PERIAPSIS":"546.575","TIME_SYSTEM":"UTC","NORAD_CAT_ID":"48697","REV_AT_EPOCH":"10115","TLE_LINE2":"2 48697  53.0517 290.6618 0000858 121.3326 238.7747 15.06414451101155","ARG_OF_PERICENTER":"121.3326","RA_OF_ASC_NODE":"290.6618","FILE":"3864386","EPOCH":"2023-03-18T20:18:42.919776","CLASSIFICATION_TYPE":"U","INCLINATION":"53.0517","DECAY_DATE":null,"MEAN_MOTION_DDOT":"0.0000000000000","MEAN_MOTION":"15.06414451","ECCENTRICITY":"0.00008580","SITE":"AFETR","OBJECT_TYPE":"PAYLOAD","OBJECT_ID":"2021-044BM","MEAN_ELEMENT_THEORY":"SGP4","COUNTRY_CODE":"US","GP_ID":"228379086","CENTER_NAME":"EARTH","SEMIMAJOR_AXIS":"6925.304","MEAN_ANOMALY":"238.7747","TLE_LINE1":"1 48697U 21044BM  23077.84633009  .00018957  00000-0  12876-2 0  9993"},{"MEAN_ELEMENT_THEORY":"SGP4","MEAN_ANOMALY":"243.6732","TLE_LINE1":"1 48879U 21059A   23077.87835350  .00000335  00000-0  29907-4 0  9993","CENTER_NAME":"EARTH","GP_ID":"228401887","COUNTRY_CODE":"US","SEMIMAJOR_AXIS":"6938.632","ECCENTRICITY":"0.00019700","OBJECT_ID":"2021-059A","SITE":"AFETR","OBJECT_TYPE":"PAYLOAD","MEAN_MOTION_DDOT":"0.0000000000000","DECAY_DATE":null,"INCLINATION":"97.5120","MEAN_MOTION":"15.02076181","RA_OF_ASC_NODE":"205.1357","ARG_OF_PERICENTER":"116.4695","CLASSIFICATION_TYPE":"U","FILE":"3864479","EPOCH":"2023-03-18T21:04:49.742400","TLE_LINE2":"2 48879  97.5120 205.1357 0001970 116.4695 243.6732 15.02076181 95736","NORAD_CAT_ID":"48879","REV_AT_EPOCH":"9573","MEAN_MOTION_DOT":"0.00000335","APOAPSIS":"561.864","OBJECT_NAME":"STARLINK-3003","TIME_SYSTEM":"UTC","PERIAPSIS":"559.130","PERIOD":"95.867","REF_FRAME":"TEME","ELEMENT_SET_NO":"999","EPHEMERIS_TYPE":"0","BSTAR":"0.00002990700000","RCS_SIZE":"LARGE","LAUNCH_DATE":"2021-06-30"},{"OBJECT_ID":"2021-059B","OBJECT_TYPE":"PAYLOAD","SITE":"AFETR","ECCENTRICITY":"0.00014570","MEAN_ANOMALY":"262.4157","TLE_LINE1":"1 48880U 21059B   23077.87663733  .00001506  00000-0  11914-3 0  9998","SEMIMAJOR_AXIS":"6938.628","GP_ID":"228375981","CENTER_NAME":"EARTH","COUNTRY_CODE":"US","MEAN_ELEMENT_THEORY":"SGP4","CLASSIFICATION_TYPE":"U","FILE":"3864277","EPOCH":"2023-03-18T21:02:21.465312","RA_OF_ASC_NODE":"205.1325","ARG_OF_PERICENTER":"97.7234","MEAN_MOTION":"15.02077500","MEAN_MOTION_DDOT":"0.0000000000000","DECAY_DATE":null,"INCLINATION":"97.5119","TIME_SYSTEM":"UTC","PERIAPSIS":"559.482","APOAPSIS":"561.504","OBJECT_NAME":"STARLINK-3004","MEAN_MOTION_DOT":"0.00001506","TLE_LINE2":"2 48880  97.5119 205.1325 0001457  97.7234 262.4157 15.02077500 95726","NORAD_CAT_ID":"48880","REV_AT_EPOCH":"9572","LAUNCH_DATE":"2021-06-30","RCS_SIZE":"LARGE","REF_FRAME":"TEME","PERIOD":"95.867","BSTAR":"0.00011914000000","EPHEMERIS_TYPE":"0","ELEMENT_SET_NO":"999"},{"ECCENTRICITY":"0.00012490","OBJECT_TYPE":"PAYLOAD","SITE":"AFETR","OBJECT_ID":"2021-059C","MEAN_ELEMENT_THEORY":"SGP4","SEMIMAJOR_AXIS":"6938.573","GP_ID":"228402886","CENTER_NAME":"EARTH","COUNTRY_CODE":"US","MEAN_ANOMALY":"256.8307","TLE_LINE1":"1 48881U 21059C   23077.93899030  .00009815  00000-0  75091-3 0  9994","ARG_OF_PERICENTER":"103.3057","RA_OF_ASC_NODE":"205.2237","EPOCH":"2023-03-18T22:32:08.761920","FILE":"3864479","CLASSIFICATION_TYPE":"U","INCLINATION":"97.5112","MEAN_MOTION_DDOT":"0.0000000000000","DECAY_DATE":null,"MEAN_MOTION":"15.02095414","OBJECT_NAME":"STARLINK-3005","APOAPSIS":"561.305","MEAN_MOTION_DOT":"0.00009815","PERIAPSIS":"559.571","TIME_SYSTEM":"UTC","NORAD_CAT_ID":"48881","REV_AT_EPOCH":"9574","TLE_LINE2":"2 48881  97.5112 205.2237 0001249 103.3057 256.8307 15.02095414 95749","RCS_SIZE":"LARGE","LAUNCH_DATE":"2021-06-30","BSTAR":"0.00075091000000","EPHEMERIS_TYPE":"0","ELEMENT_SET_NO":"999","REF_FRAME":"TEME","PERIOD":"95.866"},{"MEAN_MOTION_DDOT":"0.0000000000000","DECAY_DATE":null,"INCLINATION":"69.9980","MEAN_MOTION":"14.98332025","RA_OF_ASC_NODE":"114.7890","ARG_OF_PERICENTER":"273.9740","CLASSIFICATION_TYPE":"U","EPOCH":"2023-03-18T20:11:35.418624","FILE":"3864479","MEAN_ELEMENT_THEORY":"SGP4","MEAN_ANOMALY":"86.1049","TLE_LINE1":"1 49131U 21082B   23077.84138216  .00001024  00000-0  93585-4 0  9994","GP_ID":"228402912","COUNTRY_CODE":"US","CENTER_NAME":"EARTH","SEMIMAJOR_AXIS":"6950.187","ECCENTRICITY":"0.00032400","OBJECT_ID":"2021-082B","SITE":"AFWTR","OBJECT_TYPE":"PAYLOAD","PERIOD":"96.107","REF_FRAME":"TEME","ELEMENT_SET_NO":"999","BSTAR":"0.00009358500000","EPHEMERIS_TYPE":"0","RCS_SIZE":"LARGE","LAUNCH_DATE":"2021-09-14","TLE_LINE2":"2 49131  69.9980 114.7890 0003240 273.9740  86.1049 14.98332025 84166","REV_AT_EPOCH":"8416","NORAD_CAT_ID":"49131","MEAN_MOTION_DOT":"0.00001024","OBJECT_NAME":"STARLINK-3096","APOAPSIS":"574.303","TIME_SYSTEM":"UTC","PERIAPSIS":"569.800"},{"INCLINATION":"69.9998","MEAN_MOTION_DDOT":"0.0000000000000","DECAY_DATE":null,"MEAN_MOTION":"14.98333223","ARG_OF_PERICENTER":"267.5427","RA_OF_ASC_NODE":"155.3789","EPOCH":"2023-03-18T14:34:15.124800","FILE":"3864479","CLASSIFICATION_TYPE":"U","MEAN_ELEMENT_THEORY":"SGP4","CENTER_NAME":"EARTH","GP_ID":"228401665","COUNTRY_CODE":"US","SEMIMAJOR_AXIS":"6950.183","TLE_LINE1":"1 49132U 21082C   23077.60711950  .00002869  00000-0  24808-3 0  9990","MEAN_ANOMALY":"92.5382","ECCENTRICITY":"0.00030540","SITE":"AFWTR","OBJECT_TYPE":"PAYLOAD","OBJECT_ID":"2021-082C","ELEMENT_SET_NO":"999","EPHEMERIS_TYPE":"0","BSTAR":"0.00024808000000","PERIOD":"96.107","REF_FRAME":"TEME","RCS_SIZE":"LARGE","LAUNCH_DATE":"2021-09-14","NORAD_CAT_ID":"49132","REV_AT_EPOCH":"8314","TLE_LINE2":"2 49132  69.9998 155.3789 0003054 267.5427  92.5382 14.98333223 83147","MEAN_MOTION_DOT":"0.00002869","OBJECT_NAME":"STARLINK-3090","APOAPSIS":"574.171","PERIAPSIS":"569.925","TIME_SYSTEM":"UTC"},{"ELEMENT_SET_NO":"999","EPHEMERIS_TYPE":"0","BSTAR":"0.00012644000000","PERIOD":"96.107","REF_FRAME":"TEME","RCS_SIZE":"LARGE","LAUNCH_DATE":"2021-09-14","NORAD_CAT_ID":"49133","REV_AT_EPOCH":"8319","TLE_LINE2":"2 49133  70.0006 154.5477 0003201 272.3773  87.7019 14.98333266 83193","MEAN_MOTION_DOT":"0.00001416","OBJECT_NAME":"STARLINK-3077","APOAPSIS":"574.273","PERIAPSIS":"569.823","TIME_SYSTEM":"UTC","INCLINATION":"70.0006","MEAN_MOTION_DDOT":"0.0000000000000","DECAY_DATE":null,"MEAN_MOTION":"14.98333266","ARG_OF_PERICENTER":"272.3773","RA_OF_ASC_NODE":"154.5477","EPOCH":"2023-03-18T22:28:03.750528","FILE":"3864479","CLASSIFICATION_TYPE":"U","MEAN_ELEMENT_THEORY":"SGP4","GP_ID":"228402414","CENTER_NAME":"EARTH","COUNTRY_CODE":"US","SEMIMAJOR_AXIS":"6950.183","TLE_LINE1":"1 49133U 21082D   23077.93615452  .00001416  00000-0  12644-3 0  9999","MEAN_ANOMALY":"87.7019","ECCENTRICITY":"0.00032010","SITE":"AFWTR","OBJECT_TYPE":"PAYLOAD","OBJECT_ID":"2021-082D"},{"PERIAPSIS":"569.801","TIME_SYSTEM":"UTC","APOAPSIS":"574.116","OBJECT_NAME":"STARLINK-3078","MEAN_MOTION_DOT":"0.00021024","NORAD_CAT_ID":"49134","REV_AT_EPOCH":"8436","TLE_LINE2":"2 49134  70.0006 155.0663 0003104 276.4222  83.6583 14.98362102 84365","LAUNCH_DATE":"2021-09-14","RCS_SIZE":"LARGE","BSTAR":"0.00176300000000","EPHEMERIS_TYPE":"0","ELEMENT_SET_NO":"999","REF_FRAME":"TEME","PERIOD":"96.105","OBJECT_TYPE":"PAYLOAD","SITE":"AFWTR","OBJECT_ID":"2021-082E","ECCENTRICITY":"0.00031040","SEMIMAJOR_AXIS":"6950.094","COUNTRY_CODE":"US","GP_ID":"228403158","CENTER_NAME":"EARTH","TLE_LINE1":"1 49134U 21082E   23077.73110595  .00021024  00000-0  17630-2 0  9992","MEAN_ANOMALY":"83.6583","MEAN_ELEMENT_THEORY":"SGP4","EPOCH":"2023-03-18T17:32:47.554080","FILE":"3864479","CLASSIFICATION_TYPE":"U","ARG_OF_PERICENTER":"276.4222","RA_OF_ASC_NODE":"155.0663","MEAN_MOTION":"14.98362102","INCLINATION":"70.0006","MEAN_MOTION_DDOT":"0.0000000000000","DECAY_DATE":null}];
